0 METEOR 2-6 DEB
1 35426U 80073J   13282.66811985  .00002218  00000-0  99473-3 0  1707
2 35426 081.2081 257.8988 0024356 198.8977 161.1402 14.22048930431790
0 METEOR 2-6 DEB
1 35426U 80073J   13287.59332462  .00002408  00000-0  10797-2 0  1726
2 35426 081.2119 252.9885 0024851 183.9563 176.1391 14.22075242432497
0 METEOR 2-6 DEB
1 35426U 80073J   13290.61877240  .00002510  00000-0  11236-2 0  1735
2 35426 081.2142 249.9695 0029857 177.8450 182.4210 14.22092854432922
0 METEOR 2-6 DEB
1 35426U 80073J   13293.57379886  .00002629  00000-0  11748-2 0  1746
2 35426 081.2272 247.0272 0034999 171.1167 189.2230 14.22111842433344
0 METEOR 2-6 DEB
1 35426U 80073J   13295.19199416  .00002663  00000-0  11908-2 0  1752
2 35426 081.2253 245.4132 0032395 169.7906 190.4243 14.22121531433571
